[{"OBJECT_NAME":"JILIN-1 KUANFU 01C","OBJECT_ID":"2022-048A","EPOCH":"2026-03-09T22:44:12.026688","MEAN_MOTION":15.09601076,"ECCENTRICITY":0.00140886,"INCLINATION":97.5312,"RA_OF_ASC_NODE":147.8831,"ARG_OF_PERICENTER":308.8335,"MEAN_ANOMALY":51.1636,"EPHEMERIS_TYPE":0,"CLASSIFICATION_TYPE":"U","NORAD_CAT_ID":52443,"ELEMENT_SET_NO":999,"REV_AT_EPOCH":21222,"BSTAR":0.00028577595,"MEAN_MOTION_DOT":4.539e-5,"MEAN_MOTION_DDOT":0},{"OBJECT_NAME":"COSMOS 374 DEB","OBJECT_ID":"1970-089K","EPOCH":"2026-03-09T10:49:05.969856","MEAN_MOTION":13.67888998,"ECCENTRICITY":0.06745217,"INCLINATION":62.9248,"RA_OF_ASC_NODE":184.2517,"ARG_OF_PERICENTER":114.5683,"MEAN_ANOMALY":252.716,"EPHEMERIS_TYPE":0,"CLASSIFICATION_TYPE":"U","NORAD_CAT_ID":4667,"ELEMENT_SET_NO":999,"REV_AT_EPOCH":67502,"BSTAR":0.0012077936,"MEAN_MOTION_DOT":5.178e-5,"MEAN_MOTION_DDOT":0}]
